IRIDIUM 173             
1 43925U 19002D   26094.23207010  .00000254  00000+0  83730-4 0  9996
2 43925  86.4015  24.4617 0002110  87.0638 273.0799 14.34218593378352
IRIDIUM 169             
1 43926U 19002E   26093.89712425  .00000658  00000+0  20853-3 0  9993
2 43926  86.4211  56.2390 0002080 104.7732 255.3697 14.38609236379544
IRIDIUM 172             
1 43927U 19002F   26094.22572804  .00000123  00000+0  36929-4 0  9996
2 43927  86.4011  24.4720 0002150  81.8129 278.3311 14.34218230378363
IRIDIUM 175             
1 43928U 19002G   26094.03874563  .00000528  00000+0  14998-3 0  9993
2 43928  86.4517 321.5360 0005278 100.2889 259.8908 14.43583070388284
IRIDIUM 171             
1 43929U 19002H   26094.27646605  .00000432  00000+0  14732-3 0  9994
2 43929  86.4025  24.7490 0002344  88.5531 271.5933 14.34217621378361
IRIDIUM 170             
1 43930U 19002J   26094.28428754  .00001731  00000+0  27055-3 0  9995
2 43930  86.6134  24.4295 0002384  81.2755 278.8733 14.72253982388381
IRIDIUM 167             
1 43931U 19002K   26094.27012599  .00000474  00000+0  16211-3 0  9996
2 43931  86.4014  24.4753 0002431  92.4653 267.6821 14.34216448378365
IRIDIUM 181             
1 56726U 23068S   26094.47863779  .00000248  00000+0  67561-4 0  9999
2 56726  86.4449  87.6060 0002470  82.4473 277.7008 14.43312266151809
IRIDIUM 177             
1 56727U 23068T   26094.77205458  .00002031  00000+0  26372-3 0  9993
2 56727  86.2019   3.6509 0002190  89.6467 270.5004 14.80236516155500
IRIDIUM 174             
1 56728U 23068U   26094.81567115  .00001615  00000+0  25222-3 0  9990
2 56728  86.6142  24.3474 0002190  80.9136 279.2329 14.72243954155220
IRIDIUM 178             
1 56729U 23068V   26094.82873956  .00001003  00000+0  12852-3 0  9991
2 56729  86.6530  56.0043 0002768  85.7358 274.4180 14.80232415155519
IRIDIUM 179             
1 56730U 23068W   26094.89096535  .00002058  00000+0  26739-3 0  9990
2 56730  86.6754  64.7445 0002830  95.5463 264.6082 14.80239738155525
