[{"OBJECT_NAME":"IRIDIUM 173","OBJECT_ID":"2019-002D","EPOCH":"2026-04-04T05:34:10.856640","MEAN_MOTION":14.34218593,"ECCENTRICITY":0.00021103,"INCLINATION":86.4015,"RA_OF_ASC_NODE":24.4617,"ARG_OF_PERICENTER":87.0638,"MEAN_ANOMALY":273.0799,"EPHEMERIS_TYPE":0,"CLASSIFICATION_TYPE":"U","NORAD_CAT_ID":43925,"ELEMENT_SET_NO":999,"REV_AT_EPOCH":37835,"BSTAR":8.3730281e-5,"MEAN_MOTION_DOT":2.54e-6,"MEAN_MOTION_DDOT":0},{"OBJECT_NAME":"IRIDIUM 169","OBJECT_ID":"2019-002E","EPOCH":"2026-04-03T21:31:51.535200","MEAN_MOTION":14.38609236,"ECCENTRICITY":0.00020808,"INCLINATION":86.4211,"RA_OF_ASC_NODE":56.239,"ARG_OF_PERICENTER":104.7732,"MEAN_ANOMALY":255.3697,"EPHEMERIS_TYPE":0,"CLASSIFICATION_TYPE":"U","NORAD_CAT_ID":43926,"ELEMENT_SET_NO":999,"REV_AT_EPOCH":37954,"BSTAR":0.00020853169,"MEAN_MOTION_DOT":6.58e-6,"MEAN_MOTION_DDOT":0},{"OBJECT_NAME":"IRIDIUM 172","OBJECT_ID":"2019-002F","EPOCH":"2026-04-04T05:25:02.902656","MEAN_MOTION":14.3421823,"ECCENTRICITY":0.00021504,"INCLINATION":86.4011,"RA_OF_ASC_NODE":24.472,"ARG_OF_PERICENTER":81.8129,"MEAN_ANOMALY":278.3311,"EPHEMERIS_TYPE":0,"CLASSIFICATION_TYPE":"U","NORAD_CAT_ID":43927,"ELEMENT_SET_NO":999,"REV_AT_EPOCH":37836,"BSTAR":3.6929275e-5,"MEAN_MOTION_DOT":1.23e-6,"MEAN_MOTION_DDOT":0},{"OBJECT_NAME":"IRIDIUM 175","OBJECT_ID":"2019-002G","EPOCH":"2026-04-04T00:55:47.622432","MEAN_MOTION":14.4358307,"ECCENTRICITY":0.00052783,"INCLINATION":86.4517,"RA_OF_ASC_NODE":321.536,"ARG_OF_PERICENTER":100.2889,"MEAN_ANOMALY":259.8908,"EPHEMERIS_TYPE":0,"CLASSIFICATION_TYPE":"U","NORAD_CAT_ID":43928,"ELEMENT_SET_NO":999,"REV_AT_EPOCH":38828,"BSTAR":0.0001499771,"MEAN_MOTION_DOT":5.28e-6,"MEAN_MOTION_DDOT":0},{"OBJECT_NAME":"IRIDIUM 171","OBJECT_ID":"2019-002H","EPOCH":"2026-04-04T06:38:06.666720","MEAN_MOTION":14.34217621,"ECCENTRICITY":0.00023443,"INCLINATION":86.4025,"RA_OF_ASC_NODE":24.749,"ARG_OF_PERICENTER":88.5531,"MEAN_ANOMALY":271.5933,"EPHEMERIS_TYPE":0,"CLASSIFICATION_TYPE":"U","NORAD_CAT_ID":43929,"ELEMENT_SET_NO":999,"REV_AT_EPOCH":37836,"BSTAR":0.00014731634,"MEAN_MOTION_DOT":4.32e-6,"MEAN_MOTION_DDOT":0},{"OBJECT_NAME":"IRIDIUM 170","OBJECT_ID":"2019-002J","EPOCH":"2026-04-04T06:49:22.443456","MEAN_MOTION":14.72253982,"ECCENTRICITY":0.00023849,"INCLINATION":86.6134,"RA_OF_ASC_NODE":24.4295,"ARG_OF_PERICENTER":81.2755,"MEAN_ANOMALY":278.8733,"EPHEMERIS_TYPE":0,"CLASSIFICATION_TYPE":"U","NORAD_CAT_ID":43930,"ELEMENT_SET_NO":999,"REV_AT_EPOCH":38838,"BSTAR":0.00027054578,"MEAN_MOTION_DOT":1.731e-5,"MEAN_MOTION_DDOT":0},{"OBJECT_NAME":"IRIDIUM 167","OBJECT_ID":"2019-002K","EPOCH":"2026-04-04T06:28:58.885536","MEAN_MOTION":14.34216448,"ECCENTRICITY":0.00024316,"INCLINATION":86.4014,"RA_OF_ASC_NODE":24.4753,"ARG_OF_PERICENTER":92.4653,"MEAN_ANOMALY":267.6821,"EPHEMERIS_TYPE":0,"CLASSIFICATION_TYPE":"U","NORAD_CAT_ID":43931,"ELEMENT_SET_NO":999,"REV_AT_EPOCH":37836,"BSTAR":0.00016211459,"MEAN_MOTION_DOT":4.74e-6,"MEAN_MOTION_DDOT":0},{"OBJECT_NAME":"IRIDIUM 181","OBJECT_ID":"2023-068S","EPOCH":"2026-04-04T11:29:14.305056","MEAN_MOTION":14.43312266,"ECCENTRICITY":0.00024709,"INCLINATION":86.4449,"RA_OF_ASC_NODE":87.606,"ARG_OF_PERICENTER":82.4473,"MEAN_ANOMALY":277.7008,"EPHEMERIS_TYPE":0,"CLASSIFICATION_TYPE":"U","NORAD_CAT_ID":56726,"ELEMENT_SET_NO":999,"REV_AT_EPOCH":15180,"BSTAR":6.7560962e-5,"MEAN_MOTION_DOT":2.48e-6,"MEAN_MOTION_DDOT":0},{"OBJECT_NAME":"IRIDIUM 177","OBJECT_ID":"2023-068T","EPOCH":"2026-04-04T18:31:45.515712","MEAN_MOTION":14.80236516,"ECCENTRICITY":0.000219,"INCLINATION":86.2019,"RA_OF_ASC_NODE":3.6509,"ARG_OF_PERICENTER":89.6467,"MEAN_ANOMALY":270.5004,"EPHEMERIS_TYPE":0,"CLASSIFICATION_TYPE":"U","NORAD_CAT_ID":56727,"ELEMENT_SET_NO":999,"REV_AT_EPOCH":15550,"BSTAR":0.00026372,"MEAN_MOTION_DOT":2.031e-5,"MEAN_MOTION_DDOT":0},{"OBJECT_NAME":"IRIDIUM 174","OBJECT_ID":"2023-068U","EPOCH":"2026-04-04T19:34:33.987360","MEAN_MOTION":14.72243954,"ECCENTRICITY":0.000219,"INCLINATION":86.6142,"RA_OF_ASC_NODE":24.3474,"ARG_OF_PERICENTER":80.9136,"MEAN_ANOMALY":279.2329,"EPHEMERIS_TYPE":0,"CLASSIFICATION_TYPE":"U","NORAD_CAT_ID":56728,"ELEMENT_SET_NO":999,"REV_AT_EPOCH":15522,"BSTAR":0.00025222,"MEAN_MOTION_DOT":1.615e-5,"MEAN_MOTION_DDOT":0},{"OBJECT_NAME":"IRIDIUM 178","OBJECT_ID":"2023-068V","EPOCH":"2026-04-04T19:53:23.097984","MEAN_MOTION":14.80232415,"ECCENTRICITY":0.0002768,"INCLINATION":86.653,"RA_OF_ASC_NODE":56.0043,"ARG_OF_PERICENTER":85.7358,"MEAN_ANOMALY":274.418,"EPHEMERIS_TYPE":0,"CLASSIFICATION_TYPE":"U","NORAD_CAT_ID":56729,"ELEMENT_SET_NO":999,"REV_AT_EPOCH":15551,"BSTAR":0.00012852,"MEAN_MOTION_DOT":1.003e-5,"MEAN_MOTION_DDOT":0},{"OBJECT_NAME":"IRIDIUM 179","OBJECT_ID":"2023-068W","EPOCH":"2026-04-04T21:22:59.406240","MEAN_MOTION":14.80239738,"ECCENTRICITY":0.000283,"INCLINATION":86.6754,"RA_OF_ASC_NODE":64.7445,"ARG_OF_PERICENTER":95.5463,"MEAN_ANOMALY":264.6082,"EPHEMERIS_TYPE":0,"CLASSIFICATION_TYPE":"U","NORAD_CAT_ID":56730,"ELEMENT_SET_NO":999,"REV_AT_EPOCH":15552,"BSTAR":0.00026739,"MEAN_MOTION_DOT":2.058e-5,"MEAN_MOTION_DDOT":0}]
